OBJECT_NAME,OBJECT_ID,EPOCH,MEAN_MOTION,ECCENTRICITY,INCLINATION,RA_OF_ASC_NODE,ARG_OF_PERICENTER,MEAN_ANOMALY,EPHEMERIS_TYPE,CLASSIFICATION_TYPE,NORAD_CAT_ID,ELEMENT_SET_NO,REV_AT_EPOCH,BSTAR,MEAN_MOTION_DOT,MEAN_MOTION_DDOT
COSMOS 2530 (RODNIK-S 16),2018-097A,2026-05-11T16:04:39.334944,12.42880410,.00207532,82.5139,244.9414,115.4985,244.8244,0,U,43751,999,33775,-.20420383E-3,-.18E-6,0
COSMOS 2531 (RODNIK-S 17),2018-097B,2026-05-11T14:42:07.344864,12.42911992,.00178124,82.5184,246.0232,133.3770,226.8797,0,U,43752,999,33776,-.22734488E-3,-.21E-6,0
COSMOS 2532 (RODNIK-S 18),2018-097C,2026-05-11T15:22:42.203136,12.42908742,.00191614,82.5130,244.8081,135.4660,224.7964,0,U,43753,999,33773,.70975044E-4,.2E-6,0
MINXSS-2,2018-099A,2026-05-11T10:45:04.797216,15.44500467,.00076362,97.4545,206.7269,49.2249,310.9661,0,U,43758,999,40845,.4733026E-3,.21904E-3,0
SIRION PATHFINDER-2,2018-099B,2026-05-11T13:48:52.909632,15.14206976,.00103183,97.4284,181.5074,71.8725,288.3630,0,U,43759,999,40708,.14778603E-3,.2636E-4,0
AISTECHSAT 2,2018-099L,2026-05-11T02:35:06.483552,15.15064945,.00062995,97.4325,179.9584,76.3249,283.8684,0,U,43768,999,40666,.16660149E-3,.3052E-4,0
FOX-1CLIFF (AO-95),2018-099N,2026-05-11T02:25:52.448736,15.25898855,.00104131,97.4408,191.5040,116.7346,243.4960,0,U,43770,999,40756,.29845512E-3,.759E-4,0
RANGE-A,2018-099R,2026-05-11T13:03:20.729952,15.13063601,.00120485,97.3999,175.1989,112.0814,248.1698,0,U,43773,999,40695,.17302087E-3,.3001E-4,0
SNUSAT-2,2018-099AA,2026-05-11T08:57:34.747776,15.21263973,.00117528,97.4089,185.3340,70.2145,290.0357,0,U,43782,999,40743,.22942161E-3,.5066E-4,0
SNUGLITE,2018-099AC,2026-05-11T02:42:35.214048,15.26360439,.00042799,97.3899,185.7766,76.8149,283.3567,0,U,43784,999,40766,.29361918E-3,.7562E-4,0
ITASAT,2018-099AE,2026-05-11T09:22:13.240128,15.18572964,.00142978,97.4060,183.6448,118.7337,241.5336,0,U,43786,999,40732,.19342183E-3,.394E-4,0
EAGLET-I,2018-099AJ,2026-05-11T09:48:06.401088,15.12652302,.00128268,97.4261,182.0537,111.0763,249.1841,0,U,43790,999,40677,.16034936E-3,.2744E-4,0
ESEO,2018-099AL,2026-05-11T01:27:03.202272,15.04126416,.00133222,97.3995,170.0352,99.6548,260.6184,0,U,43792,999,40622,.12463919E-3,.1673E-4,0
THEA,2018-099AQ,2026-05-11T03:49:03.632448,15.33756959,.00084178,97.4458,200.5256,65.3514,294.8604,0,U,43796,999,40701,.35461059E-3,.11513E-3,0
ASTROCAST 0.1,2018-099AS,2026-05-11T11:40:07.486464,15.47140781,.00040248,97.4385,208.9095,7.3278,352.8030,0,U,43798,999,40875,.42439219E-3,.21471E-3,0
JY1SAT (JO-97),2018-099AX,2026-05-11T03:37:50.031264,15.32471929,.0006563,97.4154,193.8880,56.1584,304.0282,0,U,43803,999,40795,.33360564E-3,.10391E-3,0
SUOMI-100,2018-099AY,2026-05-11T03:20:56.498784,15.27555792,.00111511,97.4213,191.6912,58.7267,301.5063,0,U,43804,999,40776,.26810307E-3,.7164E-4,0
CENTAURI-1,2018-099BD,2026-05-11T02:45:49.096512,15.15977015,.00159604,97.4250,183.6363,97.3147,262.9901,0,U,43809,999,40688,.17513886E-3,.3305E-4,0
GLOBAL-2,2018-099BG,2026-05-11T01:29:43.143360,15.08450922,.00042766,97.3584,169.1201,285.4294,74.6463,0,U,43812,999,40631,.14493393E-3,.2197E-4,0
SEAHAWK-1,2018-099BQ,2026-05-11T03:12:05.078304,15.22188064,.00099797,97.3988,184.1964,83.6159,276.6214,0,U,43820,999,40689,.24136079E-3,.5479E-4,0
SAUDISAT 5A,2018-102A,2026-05-11T14:51:35.050752,15.27667514,.00080301,97.3091,193.9107,261.2921,98.7409,0,U,43831,999,41009,.12418052E-3,.3287E-4,0
SAUDISAT 5B,2018-102C,2026-05-11T15:27:55.964736,15.27944277,.00087347,97.3196,196.9390,264.2097,95.8147,0,U,43833,999,41021,.11660252E-3,.3108E-4,0
ISAT,2018-111D,2026-05-11T07:50:54.921120,15.59367710,.00084135,97.5891,63.8994,86.5627,273.6591,0,U,43879,999,40541,.65546608E-3,.51905E-3,0
UWE-4,2018-111E,2026-05-11T05:32:32.727840,15.43861134,.0010736,97.5850,57.9888,97.5983,262.6485,0,U,43880,999,40507,.43591441E-3,.19748E-3,0
D-STAR ONE (SPARROW),2018-111F,2026-05-11T08:12:35.267904,15.65557050,.00076992,97.6114,68.9740,109.5568,250.6523,0,U,43881,999,40559,.73722894E-3,.74418E-3,0
JILIN-1 09,2019-005B,2026-05-11T14:03:37.368288,15.20183584,.00019726,97.4715,226.8751,175.7183,184.4070,0,U,43943,999,40358,.13514162E-3,.2857E-4,0
JILIN-1 10,2019-005E,2026-05-11T14:10:39.047808,15.25316352,.00092599,97.4755,230.4130,55.6064,304.6048,0,U,43946,999,40373,.14841273E-3,.3668E-4,0
EGYPTSAT-A (MISRSAT-A),2019-008A,2026-05-11T15:32:06.213696,14.72264416,.00013477,98.0053,196.9486,74.1099,286.0257,0,U,44047,999,38786,.55416491E-4,.301E-5,0
