COSMOS 2530 (RODNIK-S *)
1 43751U 18097A   26131.66989971 -.00000018  00000+0 -20420-3 0  9994
2 43751  82.5139 244.9414 0020753 115.4985 244.8244 12.42880410337751
COSMOS 2531 (RODNIK-S *)
1 43752U 18097B   26131.61258501 -.00000021  00000+0 -22734-3 0  9992
2 43752  82.5184 246.0232 0017812 133.3770 226.8797 12.42911992337760
COSMOS 2532 (RODNIK-S *)
1 43753U 18097C   26131.64076624  .00000020  00000+0  70975-4 0  9998
2 43753  82.5130 244.8081 0019161 135.4660 224.7964 12.42908742337739
MINXSS-2                
1 43758U 18099A   26131.44797219  .00021904  00000+0  47330-3 0  9995
2 43758  97.4545 206.7269 0007636  49.2249 310.9661 15.44500467408450
SIRION PATHFINDER-2     
1 43759U 18099B   26131.57561238  .00002636  00000+0  14779-3 0  9992
2 43759  97.4284 181.5074 0010318  71.8725 288.3630 15.14206976407083
AISTECHSAT 2            
1 43768U 18099L   26131.10771393  .00003052  00000+0  16660-3 0  9990
2 43768  97.4325 179.9584 0006299  76.3249 283.8684 15.15064945406661
FOX-1CLIFF (AO-95)      
1 43770U 18099N   26131.10130149  .00007590  00000+0  29846-3 0  9992
2 43770  97.4408 191.5040 0010413 116.7346 243.4960 15.25898855407568
RANGE-A                 
1 43773U 18099R   26131.54398993  .00003001  00000+0  17302-3 0  9993
2 43773  97.3999 175.1989 0012048 112.0814 248.1698 15.13063601406952
SNUSAT-2                
1 43782U 18099AA  26131.37331884  .00005066  00000+0  22942-3 0  9999
2 43782  97.4089 185.3340 0011752  70.2145 290.0357 15.21263973407435
SNUGLITE                
1 43784U 18099AC  26131.11290757  .00007562  00000+0  29362-3 0  9992
2 43784  97.3899 185.7766 0004279  76.8149 283.3567 15.26360439407666
ITASAT                  
1 43786U 18099AE  26131.39043102  .00003940  00000+0  19342-3 0  9997
2 43786  97.4060 183.6448 0014297 118.7337 241.5336 15.18572964407321
EAGLET-I                
1 43790U 18099AJ  26131.40840742  .00002744  00000+0  16035-3 0  9996
2 43790  97.4261 182.0537 0012826 111.0763 249.1841 15.12652302406778
ESEO                    
1 43792U 18099AL  26131.06045373  .00001673  00000+0  12464-3 0  9999
2 43792  97.3995 170.0352 0013322  99.6548 260.6184 15.04126416406220
THEA                    
1 43796U 18099AQ  26131.15906982  .00011513  00000+0  35461-3 0  9991
2 43796  97.4458 200.5256 0008417  65.3514 294.8604 15.33756959407010
ASTROCAST 0.1           
1 43798U 18099AS  26131.48619776  .00021471  00000+0  42439-3 0  9998
2 43798  97.4385 208.9095 0004024   7.3278 352.8030 15.47140781408752
JY1SAT (JO-97)          
1 43803U 18099AX  26131.15127351  .00010391  00000+0  33361-3 0  9995
2 43803  97.4154 193.8880 0006563  56.1584 304.0282 15.32471929407953
SUOMI-100               
1 43804U 18099AY  26131.13954281  .00007164  00000+0  26810-3 0  9999
2 43804  97.4213 191.6912 0011151  58.7267 301.5063 15.27555792407760
CENTAURI-1              
1 43809U 18099BD  26131.11515158  .00003305  00000+0  17514-3 0  9992
2 43809  97.4250 183.6363 0015960  97.3147 262.9901 15.15977015406881
GLOBAL-2                
1 43812U 18099BG  26131.06230490  .00002197  00000+0  14493-3 0  9994
2 43812  97.3584 169.1201 0004276 285.4294  74.6463 15.08450922406319
SEAHAWK-1               
1 43820U 18099BQ  26131.13339211  .00005479  00000+0  24136-3 0  9993
2 43820  97.3988 184.1964 0009979  83.6159 276.6214 15.22188064406894
SAUDISAT 5A             
1 43831U 18102A   26131.61915568  .00003287  00000+0  12418-3 0  9993
2 43831  97.3091 193.9107 0008030 261.2921  98.7409 15.27667514410099
SAUDISAT 5B             
1 43833U 18102C   26131.64439774  .00003108  00000+0  11660-3 0  9998
2 43833  97.3196 196.9390 0008734 264.2097  95.8147 15.27944277410217
ISAT                    
1 43879U 18111D   26131.32702455  .00051905  00000+0  65547-3 0  9993
2 43879  97.5891  63.8994 0008413  86.5627 273.6591 15.59367710405412
UWE-4                   
1 43880U 18111E   26131.23093435  .00019748  00000+0  43591-3 0  9990
2 43880  97.5850  57.9888 0010736  97.5983 262.6485 15.43861134405077
D-STAR ONE (SPARROW)    
1 43881U 18111F   26131.34207486  .00074418  00000+0  73723-3 0  9991
2 43881  97.6114  68.9740 0007699 109.5568 250.6523 15.65557050405598
JILIN-1 09              
1 43943U 19005B   26131.58584917  .00002857  00000+0  13514-3 0  9996
2 43943  97.4715 226.8751 0001972 175.7183 184.4070 15.20183584403581
JILIN-1 10              
1 43946U 19005E   26131.59072972  .00003668  00000+0  14841-3 0  9998
2 43946  97.4755 230.4130 0009259  55.6064 304.6048 15.25316352403734
EGYPTSAT-A (MISRSAT-A)  
1 44047U 19008A   26131.64729414  .00000301  00000+0  55416-4 0  9995
2 44047  98.0053 196.9486 0001347  74.1099 286.0257 14.72264416387863
